     2.100          NAVIGATION                              RINEX VERSION / TYPE
fic2rin                                 12/24/2011 00:24:50 PGM / RUN BY / DATE
                                                            END OF HEADER
13 11 12 23 18  0  0.0  .234688632190D-03 -.204636307899D-11  .000000000000D+00
     .100000000000D+03  .148375000000D+03  .385301763651D-08 -.357014224858D+00
     .767596065998D-05  .462785328273D-02  .497326254845D-05  .515374479294D+04
     .496800000000D+06 -.894069671631D-07 -.244989190036D+01  .130385160446D-07
     .987720719767D+00  .298406250000D+03  .194311833040D+01 -.793640201157D-08
     .204651381694D-09  .100000000000D+01  .166700000000D+04  .000000000000D+00
     .340000000000D+01  .000000000000D+00 -.116415321827D-07  .100000000000D+03
     .489606000000D+06  .400000000000D+01
14 11 12 23 18  0  0.0  .187013763934D-03  .159161572810D-11  .000000000000D+00
     .550000000000D+02  .150656250000D+03  .410267089271D-08 -.341445047517D+00
     .788830220699D-05  .624955270905D-02  .582635402679D-05  .515375820351D+04
     .496800000000D+06 -.391155481339D-07 -.247551139073D+01  .372529029846D-07
     .980655439870D+00  .278875000000D+03 -.205305222799D+01 -.811283793226D-08
     .201794119821D-09  .100000000000D+01  .166700000000D+04  .000000000000D+00
     .240000000000D+01  .000000000000D+00 -.884756445885D-08  .550000000000D+02
     .489606000000D+06  .400000000000D+01
15 11 12 23 18  0  0.0 -.961059704423D-04  .795807864051D-12  .000000000000D+00
     .190000000000D+02  .170343750000D+03  .468876673453D-08 -.649085178626D+00
     .878237187862D-05  .414905266371D-02  .609271228313D-05  .515374390030D+04
     .496800000000D+06  .100582838058D-06 -.255817890621D+01 -.875443220139D-07
     .947672864824D+00  .256812500000D+03 -.291789426887D-01 -.829927426951D-08
     .163221084528D-09  .100000000000D+01  .166700000000D+04  .000000000000D+00
     .240000000000D+01  .000000000000D+00 -.102445483208D-07  .190000000000D+02
     .489606000000D+06  .400000000000D+01
16 11 12 23 18  0  0.0 -.215373001993D-03 -.181898940355D-11  .000000000000D+00
     .630000000000D+02 -.139781250000D+03  .367979613542D-08  .101449147254D+01
    -.720843672752D-05  .623854203150D-02  .946410000324D-05  .515358993912D+04
     .496800000000D+06  .707805156708D-07 -.403406006497D+00  .121071934700D-06
     .979100511558D+00  .206093750000D+03 -.813409823270D-01 -.763960393445D-08
    -.217866217860D-10  .100000000000D+01  .166700000000D+04  .000000000000D+00
     .240000000000D+01  .000000000000D+00 -.977888703346D-08  .630000000000D+02
     .489606000000D+06  .400000000000D+01
17 11 12 23 18  0  0.0  .158907845616D-03 -.216004991671D-11  .000000000000D+00
     .740000000000D+02  .104687500000D+02  .466055127352D-08  .924377528492D-01
     .551342964172D-06  .692849582992D-02  .931881368160D-05  .515360947418D+04
     .496800000000D+06 -.149011611938D-07  .637511561178D+00  .141561031342D-06
     .962249617559D+00  .203656250000D+03 -.238512253512D+01 -.799926177279D-08
     .757531554230D-09  .100000000000D+01  .166700000000D+04  .000000000000D+00
     .240000000000D+01  .000000000000D+00 -.107102096081D-07  .740000000000D+02
     .489606000000D+06  .400000000000D+01
18 11 12 23 18  0  0.0  .173269305378D-03  .181898940355D-11  .000000000000D+00
     .770000000000D+02  .318437500000D+02  .505199615020D-08  .152735788710D+01
     .168196856976D-05  .127385598607D-01  .122487545013D-04  .515366236687D+04
     .496800000000D+06 -.344589352608D-06  .271102138042D+01 -.130385160446D-07
     .931202753772D+00  .131187500000D+03 -.220087028080D+01 -.823105714228D-08
    -.706457998240D-09  .100000000000D+01  .166700000000D+04  .000000000000D+00
     .240000000000D+01  .000000000000D+00 -.111758708954D-07  .770000000000D+02
     .489606000000D+06  .400000000000D+01
19 11 12 23 18  0  0.0 -.218161847442D-03 -.386535248253D-11  .000000000000D+00
     .620000000000D+02  .850000000000D+01  .465197948790D-08 -.715515020255D+00
     .419095158577D-06  .775251490995D-02  .901706516743D-05  .515372722244D+04
     .496800000000D+06  .119209289551D-06  .690950941886D+00 -.838190317154D-07
     .959627922069D+00  .202562500000D+03  .136275747655D+00 -.799926177279D-08
     .743245244862D-09  .100000000000D+01  .166700000000D+04  .000000000000D+00
     .240000000000D+01  .000000000000D+00 -.144354999065D-07  .620000000000D+02
     .489606000000D+06  .400000000000D+01
20 11 12 23 18  0  0.0  .585843808949D-04  .682121026330D-12  .000000000000D+00
     .240000000000D+02  .284375000000D+02  .496556397853D-08  .197970098007D+01
     .135973095894D-05  .501348136459D-02  .110901892185D-04  .515381114769D+04
     .496800000000D+06 -.242143869400D-07  .265721989823D+01 -.763684511185D-07
     .931496213676D+00  .148375000000D+03  .126026935507D+01 -.803997775449D-08
    -.616811406957D-09  .100000000000D+01  .166700000000D+04  .000000000000D+00
     .240000000000D+01  .000000000000D+00 -.791624188423D-08  .240000000000D+02
     .489606000000D+06  .400000000000D+01
21 11 12 23 18  0  0.0 -.192787498236D-03 -.250111042988D-11  .000000000000D+00
     .240000000000D+02 -.119375000000D+02  .568773691707D-08  .259840872330D+01
    -.823289155960D-06  .183180745225D-01  .497139990330D-05  .515366177177D+04
     .496800000000D+06 -.186264514923D-08  .165859960198D+01 -.312924385071D-06
     .930924085433D+00  .269750000000D+03 -.230936841938D+01 -.821891377932D-08
    -.127505311108D-09  .100000000000D+01  .166700000000D+04  .000000000000D+00
     .240000000000D+01  .000000000000D+00 -.111758708954D-07  .240000000000D+02
     .489606000000D+06  .400000000000D+01
22 11 12 23 18  0  0.0  .143080484122D-03 -.113686837722D-12  .000000000000D+00
     .930000000000D+02  .296250000000D+02  .515878631273D-08  .662881561118D+00
     .166520476341D-05  .574193138164D-02  .119041651487D-04  .515370234680D+04
     .496800000000D+06 -.894069671631D-07  .271472798620D+01  .149011611938D-07
     .928915877806D+00  .134406250000D+03 -.197899439795D+01 -.826927301984D-08
    -.681456956846D-09  .100000000000D+01  .166700000000D+04  .000000000000D+00
     .340000000000D+01  .000000000000D+00 -.167638063431D-07  .930000000000D+02
     .489606000000D+06  .400000000000D+01
23 11 12 23 18  0  0.0  .248287338763D-03 -.329691829393D-11  .000000000000D+00
     .650000000000D+02  .148156250000D+03  .430196490839D-08 -.118819934982D+01
     .762939453125D-05  .750817114022D-02  .577792525291D-05  .515370112228D+04
     .496800000000D+06  .260770320892D-07 -.252476707443D+01 -.122934579849D-06
     .962293903015D+00  .269125000000D+03 -.302981869764D+01 -.806355016495D-08
     .213223167315D-09  .100000000000D+01  .166700000000D+04  .000000000000D+00
     .240000000000D+01  .000000000000D+00 -.204890966415D-07  .650000000000D+02
     .489606000000D+06  .400000000000D+01
25 11 12 23 18  0  0.0  .304854474962D-04  .454747350886D-12  .000000000000D+00
     .112000000000D+03 -.163281250000D+03  .393230665350D-08  .202062807218D+01
    -.835396349430D-05  .103885622229D-02  .913441181183D-05  .515379615021D+04
     .496800000000D+06  .167638063431D-07 -.453712729539D+00 -.745058059692D-08
     .966993577084D+00  .205187500000D+03  .804563570811D+00 -.781853995929D-08
    -.117862052285D-10  .100000000000D+01  .166700000000D+04  .000000000000D+00
     .340000000000D+01  .000000000000D+00  .512227416039D-08  .112000000000D+03
     .489606000000D+06  .400000000000D+01
26 11 12 23 18  0  0.0 -.272301025689D-03 -.139834810398D-10  .000000000000D+00
     .250000000000D+02  .155843750000D+03  .386373236853D-08 -.132599302859D+01
     .838562846184D-05  .205504979240D-01  .422820448875D-05  .515366119576D+04
     .496800000000D+06  .314787030220D-06 -.245537397081D+01  .411644577980D-06
     .985301843240D+00  .313031250000D+03  .116691581258D+01 -.800426198107D-08
     .190722230061D-09  .100000000000D+01  .166700000000D+04  .000000000000D+00
     .240000000000D+01  .000000000000D+00 -.605359673500D-08  .250000000000D+02
     .489606000000D+06  .400000000000D+01
28 11 12 23 18  0  0.0  .958438031375D-04  .352429196937D-11  .000000000000D+00
     .220000000000D+02 -.130875000000D+03  .388159025524D-08  .683433070245D+00
    -.686012208462D-05  .177002687706D-01  .105388462543D-04  .515371321869D+04
     .496800000000D+06 -.260770320892D-06 -.396468654397D+00 -.521540641785D-07
     .977434288827D+00  .190531250000D+03 -.186358390708D+01 -.795533137148D-08
    -.112861844006D-09  .100000000000D+01  .166700000000D+04  .000000000000D+00
     .240000000000D+01  .000000000000D+00 -.107102096081D-07  .220000000000D+02
     .489606000000D+06  .400000000000D+01
30 11 12 23 18  0  0.0  .139437615871D-04 -.119371179608D-10  .000000000000D+00
     .410000000000D+02 -.150125000000D+03  .430339353933D-08 -.127502161263D+00
    -.781007111073D-05  .109095566440D-01  .802055001259D-05  .515360126495D+04
     .496800000000D+06 -.206753611565D-06 -.543141453004D+00  .167638063431D-07
     .958212668787D+00  .226093750000D+03  .155429623177D+01 -.813962476233D-08
    -.646455498895D-10  .100000000000D+01  .166700000000D+04  .000000000000D+00
     .685000000000D+01  .000000000000D+00 -.419095158577D-08  .410000000000D+02
     .489606000000D+06  .400000000000D+01
31 11 12 23 18  0  0.0  .186285935342D-03  .488853402203D-11  .000000000000D+00
     .700000000000D+02 -.351562500000D+02  .429375028051D-08 -.278211784880D+01
    -.175461173058D-05  .797649938613D-02 -.769272446632D-06  .515355032730D+04
     .496800000000D+06  .113621354103D-06 -.147516440643D+01  .968575477600D-07
     .980295676130D+00  .406750000000D+03 -.942125726701D+00 -.820212736581D-08
    -.144648882349D-09  .100000000000D+01  .166700000000D+04  .000000000000D+00
     .240000000000D+01  .000000000000D+00 -.130385160446D-07  .700000000000D+02
     .489606000000D+06  .400000000000D+01
